{"version": 0.6, "generator": "Overpass API 0.7.56.7 b85c4387", "osm3s": {"timestamp_osm_base": "2021-02-13T20:02:03Z", "copyright": "The data included in this document is from www.openstreetmap.org. The data is made available under ODbL."}, "elements": [{"type": "node", "id": 1170703055, "lat": 43.26119, "lon": -2.93387, "tags": {"amenity": "bicycle_rental", "capacity": "10", "email": "bilbaobizi@bilbao.eus", "name": "10-EGUILLOR", "network": "Bilbaobizi", "operator": "nextbike", "phone": "+34 94 656 49 05", "ref": "3369", "website": "https://www.bilbaobizi.bilbao.eus"}}, {"type": "node", "id": 1325398697, "lat": 43.2673, "lon": -2.93966, "tags": {"amenity": "bicycle_rental", "capacity": "10", "email": "bilbaobizi@bilbao.eus", "name": "13-LEIZAOLA", "network": "Bilbaobizi", "operator": "nextbike", "phone": "+34 94 656 49 05", "ref": "3372", "website": "https://www.bilbaobizi.bilbao.eus"}}, {"type": "node", "id": 1797141602, "lat": 43.26559, "lon": -2.94462, "tags": {"amenity": "bicycle_rental", "capacity": "10", "email": "bilbaobizi@bilbao.eus", "name": "11-ANSELMO CLAVE", "network": "Bilbaobizi", "operator": "nextbike", "phone": "+34 94 656 49 05", "ref": "3370", "website": "https://www.bilbaobizi.bilbao.eus"}}, {"type": "node", "id": 1797175978, "lat": 43.26073, "lon": -2.9395, "tags": {"amenity": "bicycle_rental", "capacity": "25", "email": "bilbaobizi@bilbao.eus", "name": "12-INDAUTXU", "network": "Bilbaobizi", "operator": "nextbike", "phone": "+34 94 656 49 05", "ref": "3371", "website": "https://www.bilbaobizi.bilbao.eus"}}, {"type": "node", "id": 3785372926, "lat": 43.257931, "lon": -2.935669, "tags": {"amenity": "bicycle_rental", "capacity": "10", "email": "bilbaobizi@bilbao.eus", "name": "23-EGA\u00d1A", "network": "Bilbaobizi", "operator": "nextbike", "phone": "+34 94 656 49 05", "ref": "3382", "website": "https://www.bilbaobizi.bilbao.eus"}}, {"type": "node", "id": 3785372927, "lat": 43.26462, "lon": -2.93264, "tags": {"amenity": "bicycle_rental", "capacity": "20", "email": "bilbaobizi@bilbao.eus", "name": "22-HEROS", "network": "Bilbaobizi", "operator": "nextbike", "phone": "+34 94 656 49 05", "ref": "3381", "website": "https://www.bilbaobizi.bilbao.eus"}}, {"type": "node", "id": 4713714165, "lat": 43.2612223, "lon": -2.9250949, "tags": {"amenity": "bicycle_rental", "name": "Tourne", "website": "https://tournebilbao.com/"}}, {"type": "node", "id": 6013470572, "lat": 43.25848, "lon": -2.94357, "tags": {"amenity": "bicycle_rental", "capacity": "10", "email": "bilbaobizi@bilbao.eus", "name": "07-AREILTZA", "network": "Bilbaobizi", "operator": "nextbike", "phone": "+34 94 656 49 05", "ref": "3366", "website": "https://www.bilbaobizi.bilbao.eus"}}, {"type": "node", "id": 6016067504, "lat": 43.26074, "lon": -2.92696, "tags": {"amenity": "bicycle_rental", "capacity": "10", "email": "bilbaobizi@bilbao.eus", "name": "26-ABANDO", "network": "Bilbaobizi", "operator": "nextbike", "phone": "+34 94 656 49 05", "ref": "3385", "website": "https://www.bilbaobizi.bilbao.eus"}}, {"type": "node", "id": 7170306985, "lat": 43.2613734, "lon": -2.9251515, "tags": {"amenity": "bicycle_rental", "website": "http://info@bajabikes.eu"}}, {"type": "node", "id": 8058752744, "lat": 43.2633876, "lon": -2.93429, "tags": {"amenity": "bicycle_rental", "email": "bilbaobizi@bilbao.eus", "name": "39-MOYUA", "network": "Bilbaobizi", "operator": "nextbike", "phone": "+34 94 656 49 05", "ref": "3398", "website": "https://www.bilbaobizi.bilbao.eus"}}, {"type": "node", "id": 8058768625, "lat": 43.2685416, "lon": -2.9373681, "tags": {"amenity": "bicycle_rental", "email": "bilbaobizi@bilbao.eus", "name": "36-RAM\u00d3N RUBIAL", "network": "Bilbaobizi", "operator": "nextbike", "phone": "+34 94 656 49 05", "ref": "3395", "website": "https://www.bilbaobizi.bilbao.eus"}}]}